      2.10          N: GNSS NAV DATA                        RINEX VERSION / TYPE
fic2rin                                 11/10/2020 00:18:17 PGM / RUN BY / DATE
                                                            END OF HEADER
22 20 11  9 22  0  0.0-7.321895100176e-04 5.229594535194e-12 0.000000000000e+00
    1.390000000000e+02-7.653125000000e+01 5.260576266974e-09-2.751373771018e+00
   -3.930181264877e-06 6.723580532707e-03 4.865229129791e-06 5.153685205460e+03
    1.656000000000e+05 0.000000000000e+00 1.016182801875e+00 1.229345798492e-07
    9.322560781962e-01 2.649687500000e+02-1.073304958888e+00-8.480353240752e-09
   -2.285809498855e-11 1.000000000000e+00 2.131000000000e+03 0.000000000000e+00
    2.400000000000e+00 0.000000000000e+00-1.816079020500e-08 1.390000000000e+02
    1.584000000000e+05 4.000000000000e+00
19 20 11  9 22  0  0.0-8.044485002756e-05 5.002220859751e-12 0.000000000000e+00
    8.800000000000e+01 4.215625000000e+01 3.870875523217e-09 7.266756632439e-01
    2.060085535049e-06 9.037906769663e-03 1.031719148159e-05 5.153605478287e+03
    1.656000000000e+05-2.793967723846e-08-8.815067331966e-01-1.378357410431e-07
    9.816899760365e-01 1.978750000000e+02 1.745917296623e+00-7.917829809393e-09
   -1.360770967287e-10 1.000000000000e+00 2.131000000000e+03 0.000000000000e+00
    2.400000000000e+00 0.000000000000e+00-1.536682248116e-08 8.800000000000e+01
    1.584000000000e+05 4.000000000000e+00
11 20 11  9 22  0  0.0-1.131496392190e-04 1.057287590811e-11 0.000000000000e+00
    8.400000000000e+01 5.784375000000e+01 5.352722962397e-09 1.799467660148e+00
    2.991408109665e-06 1.563618634827e-02 6.103888154030e-06 5.153726110458e+03
    1.656000000000e+05 3.874301910400e-07-4.156035277837e-01 1.080334186554e-07
    9.139948858185e-01 2.320000000000e+02 2.065717815770e+00-8.419279268204e-09
    1.478633019572e-10 1.000000000000e+00 2.131000000000e+03 0.000000000000e+00
    2.400000000000e+00 0.000000000000e+00-1.257285475731e-08 8.400000000000e+01
    1.584000000000e+05 4.000000000000e+00
25 20 11  9 22  0  0.0 1.940364018083e-05 6.480149750132e-12 0.000000000000e+00
    1.070000000000e+02-3.250000000000e+00 4.775198906202e-09 7.185058831226e-01
   -7.078051567078e-08 9.291679365560e-03 6.277114152908e-06 5.153708974838e+03
    1.656000000000e+05-1.043081283569e-07-2.033414439942e+00 5.029141902924e-08
    9.633594325643e-01 2.598437500000e+02 9.292469756664e-01-8.373205920493e-09
   -4.932348309248e-10 1.000000000000e+00 2.131000000000e+03 0.000000000000e+00
    3.400000000000e+00 0.000000000000e+00 5.587935447693e-09 1.070000000000e+02
    1.584000000000e+05 4.000000000000e+00
13 20 11  9 22  0  0.0 6.327126175165e-05 3.865352482535e-12 0.000000000000e+00
    7.600000000000e+01-2.275000000000e+01 4.279106813403e-09-2.408954891121e+00
   -1.294538378716e-06 4.782124655321e-03 1.151300966740e-05 5.153690792084e+03
    1.656000000000e+05 1.173466444016e-07 2.284916017249e+00-3.725290298462e-09
    9.679291980448e-01 1.596875000000e+02 1.048976281593e+00-7.743179677371e-09
    2.664396697103e-10 1.000000000000e+00 2.131000000000e+03 0.000000000000e+00
    2.400000000000e+00 0.000000000000e+00-1.164153218269e-08 7.600000000000e+01
    1.584000000000e+05 4.000000000000e+00
17 20 11  9 22  0  0.0 3.517284058034e-04 5.115907697473e-12 0.000000000000e+00
    6.200000000000e+01 5.362500000000e+01 3.784443351542e-09-1.889952263755e+00
    2.803280949593e-06 1.356442004908e-02 1.017935574055e-05 5.153498411179e+03
    1.656000000000e+05 2.719461917877e-07-9.268936159253e-01 2.104789018631e-07
    9.833192674002e-01 1.949687500000e+02-1.617266779779e+00-7.616745839466e-09
   -1.200049986899e-10 1.000000000000e+00 2.131000000000e+03 0.000000000000e+00
    2.400000000000e+00 0.000000000000e+00-1.117587089539e-08 6.200000000000e+01
    1.584000000000e+05 4.000000000000e+00
26 20 11  9 22  0  0.0 3.091744147241e-04 6.139089236967e-12 0.000000000000e+00
    6.200000000000e+01-2.562500000000e+00 5.148428738437e-09 1.690936186051e-01
   -2.197921276093e-07 5.233187926933e-03 5.699694156647e-06 5.153703943253e+03
    1.656000000000e+05 0.000000000000e+00-2.071824247956e+00 5.587935447693e-08
    9.443879715154e-01 2.575000000000e+02 2.054670885404e-01-8.510354490424e-09
   -4.625192657839e-10 1.000000000000e+00 2.131000000000e+03 0.000000000000e+00
    2.400000000000e+00 0.000000000000e+00 6.984919309616e-09 6.200000000000e+01
    1.584000000000e+05 4.000000000000e+00
18 20 11  9 22  0  0.0 3.192392177880e-04 5.002220859751e-12 0.000000000000e+00
    3.000000000000e+00 2.903125000000e+01 4.436970531918e-09 2.622865345944e+00
    1.549720764160e-06 1.152353128418e-03 4.963949322701e-06 5.153708427429e+03
    1.656000000000e+05-1.862645149231e-08 8.425721881708e-02 4.284083843231e-08
    9.660528242063e-01 2.862812500000e+02 2.906032853007e+00-8.208913362763e-09
    2.789401904071e-10 1.000000000000e+00 2.131000000000e+03 0.000000000000e+00
    2.400000000000e+00 0.000000000000e+00-8.381903171539e-09 2.590000000000e+02
    1.584000000000e+05 4.000000000000e+00
23 20 11  9 22  0  0.0 9.824195876718e-05 4.888534022029e-12 0.000000000000e+00
    2.700000000000e+01-7.631250000000e+01 4.638764651739e-09 2.378483172114e+00
   -4.043802618980e-06 1.091009820811e-03 5.446374416351e-06 5.153629486084e+03
    1.656000000000e+05-3.725290298462e-09 1.083219748656e+00-2.235174179077e-08
    9.618157482408e-01 2.751562500000e+02 2.081610937302e+00-8.232128615486e-09
   -3.500145795122e-11 1.000000000000e+00 2.131000000000e+03 0.000000000000e+00
    2.400000000000e+00 0.000000000000e+00-8.381903171539e-09 5.390000000000e+02
    1.584000000000e+05 4.000000000000e+00
30 20 11  9 21 59 44.0-3.327494487166e-04-6.707523425575e-12 0.000000000000e+00
    2.800000000000e+01 4.856250000000e+01 5.466656279605e-09 1.685842075621e+00
    2.631917595863e-06 4.754693945870e-03 6.921589374542e-06 5.153564840317e+03
    1.655840000000e+05-3.911554813385e-08-3.050592377212e+00 1.210719347000e-07
    9.380668575642e-01 2.353125000000e+02-2.815827799879e+00-8.522140695653e-09
    2.046513816944e-10 1.000000000000e+00 2.131000000000e+03 0.000000000000e+00
    2.400000000000e+00 0.000000000000e+00 3.725290298462e-09 2.800000000000e+01
    1.586700000000e+05 4.000000000000e+00
25 20 11  9 21 59 44.0 1.940503716469e-05 6.480149750132e-12 0.000000000000e+00
    1.000000000000e+00-3.250000000000e+00 4.775198906202e-09 7.161712297149e-01
   -7.078051567078e-08 9.291680878960e-03 6.277114152908e-06 5.153708984375e+03
    1.655840000000e+05-1.043081283569e-07-2.033414314131e+00 5.029141902924e-08
    9.633594369531e-01 2.598437500000e+02 9.292478738981e-01-8.373205920493e-09
   -4.932348309248e-10 1.000000000000e+00 2.131000000000e+03 0.000000000000e+00
    2.400000000000e+00 0.000000000000e+00 5.587935447693e-09 1.000000000000e+00
    1.587000000000e+05 4.000000000000e+00
16 20 11  9 21 59 44.0-2.342229709029e-04-5.343281372916e-12 0.000000000000e+00
    9.000000000000e+00-2.468750000000e+00 4.326608792051e-09-8.481989105006e-01
   -1.080334186554e-07 1.170447072946e-02 6.830319762230e-06 5.153597764969e+03
    1.655840000000e+05 2.179294824600e-07-1.943538310778e+00 2.011656761169e-07
    9.761548236009e-01 2.554687500000e+02 6.300139494898e-01-8.059978587603e-09
   -4.775198906202e-10 1.000000000000e+00 2.131000000000e+03 0.000000000000e+00
    2.400000000000e+00 0.000000000000e+00-1.071020960808e-08 9.000000000000e+00
    1.632000000000e+05 4.000000000000e+00
16 20 11  9 23 59 44.0-2.342611551285e-04-5.343281372916e-12 0.000000000000e+00
    1.000000000000e+01-5.468750000000e+00 4.463757361983e-09 2.020585610987e-01
   -1.303851604462e-07 1.170456327964e-02 6.524845957756e-06 5.153598148346e+03
    1.727840000000e+05-5.587935447693e-09-1.943597403890e+00 1.415610313416e-07
    9.761506294147e-01 2.594062500000e+02 6.299825523420e-01-8.248915028993e-09
   -4.621621080497e-10 1.000000000000e+00 2.131000000000e+03 0.000000000000e+00
    2.400000000000e+00 0.000000000000e+00-1.071020960808e-08 1.000000000000e+01
    1.656000000000e+05 4.000000000000e+00
 2 20 11 10  0  0  0.0-5.405494011939e-04-4.774847184308e-12 0.000000000000e+00
    7.100000000000e+01 4.712500000000e+01 4.481615248692e-09-2.663416735826e+00
    2.477318048477e-06 2.003790263552e-02 4.703179001808e-06 5.153552057266e+03
    1.728000000000e+05 2.197921276093e-07-1.017832275657e-02-5.587935447693e-09
    9.612931836625e-01 2.885625000000e+02-1.586920356780e+00-7.918901282596e-09
    3.546576300567e-10 1.000000000000e+00 2.131000000000e+03 0.000000000000e+00
    2.400000000000e+00 0.000000000000e+00-1.769512891769e-08 7.100000000000e+01
    1.656000000000e+05 4.000000000000e+00
 1 20 11 10  0  0  0.0 8.090152405202e-04-3.524291969370e-12 0.000000000000e+00
    8.600000000000e+01 2.815625000000e+01 4.020881771580e-09-2.875832913458e+00
    1.519918441772e-06 1.010731514543e-02 4.850327968597e-06 5.153695371628e+03
    1.728000000000e+05 5.029141902924e-08 6.948607645399e-02-9.126961231232e-08
    9.824211732138e-01 2.964062500000e+02 8.266571696807e-01-7.861041729656e-09
    2.753686130652e-10 1.000000000000e+00 2.131000000000e+03 0.000000000000e+00
    2.400000000000e+00 0.000000000000e+00 5.122274160385e-09 8.600000000000e+01
    1.656000000000e+05 4.000000000000e+00
 5 20 11 10  0  0  0.0-2.549635246396e-05-9.094947017729e-13 0.000000000000e+00
    1.250000000000e+02-8.696875000000e+01 4.814129099229e-09-9.944934657875e-03
   -4.397705197334e-06 6.093573872931e-03 5.448237061501e-06 5.153761623383e+03
    1.728000000000e+05 2.235174179077e-08 1.074374337375e+00 1.490116119385e-07
    9.538917617636e-01 2.700937500000e+02 8.911364645993e-01-8.461423880839e-09
   -8.500354073867e-11 1.000000000000e+00 2.131000000000e+03 0.000000000000e+00
    2.400000000000e+00 0.000000000000e+00-1.117587089539e-08 1.250000000000e+02
    1.656000000000e+05 4.000000000000e+00
